#aV2006  4 14  0  0   .00000000      96 DD+AD WGS84 FIT  NGA
## 1370 432000.00000000   900.00000000 53839  .0000000000000
+   29     1  2  3  4  5  6  7  8  9 10 11 13 14 15 16 17 18
+         19 20 21 22 23 24 25 26 27 28 29 30  0  0  0  0  0
+          0  0  0  0  0  0  0  0  0  0  0  0  0  0  0  0  0
+          0  0  0  0  0  0  0  0  0  0  0  0  0  0  0  0  0
+          0  0  0  0  0  0  0  0  0  0  0  0  0  0  0  0  0
++         0  0  0  0  0  0  0  0  0  0  0  0  0  0  0  0  0
++         0  0  0  0  0  0  0  0  0  0  0  0  0  0  0  0  0
++         0  0  0  0  0  0  0  0  0  0  0  0  0  0  0  0  0
++         0  0  0  0  0  0  0  0  0  0  0  0  0  0  0  0  0
++         0  0  0  0  0  0  0  0  0  0  0  0  0  0  0  0  0
%c cc cc ccc ccc cccc cccc cccc cccc ccccc ccccc ccccc ccccc
%c cc cc ccc ccc cccc cccc cccc cccc ccccc ccccc ccccc ccccc
%f  0.0000000  0.000000000  0.00000000000  0.000000000000000
%f  0.0000000  0.000000000  0.00000000000  0.000000000000000
%i    0    0    0    0      0      0      0      0         0
%i    0    0    0    0      0      0      0      0         0
/*      NGA, ST. LOUIS,MO.                                  
/*   EPHEMERIS COMPUTED FROM  3 DAYS OF DATA                
/* CCCCCCCCCCCCCCCCCCCCCCCCCCCCCCCCCCCCCCCCCCCCCCCCCCCCCCCCC
/* CCCCCCCCCCCCCCCCCCCCCCCCCCCCCCCCCCCCCCCCCCCCCCCCCCCCCCCCC
*  2006  4 14  2 15   .00000000                                                 
P  1   9865.925836 -18147.219389  16868.409095     46.912007                    
V  1  18993.375943  -9051.136291 -21132.022301       .020998                    
P  2   2525.525727  17422.552476  19674.899666     -9.222449                    
V  2 -22976.827341 -11240.506082  12539.550852       .022274                    
P  3   2785.659441 -19082.195536 -18300.374055     90.157626                    
V  3  19908.002831 -11979.120682  15965.469886       .033228                    
P  4  -9538.338822  12261.940411  21523.144552    204.308745                    
V  4 -23731.313387 -13769.867759  -2320.420285       .101277                    
P  5  13507.442750  16135.484028  16108.926937   -166.031594                    
V  5   -189.790676  20943.319305 -20402.343001       .662085                    
P  6  22680.966218  -2491.303395  13853.381705    470.155873                    
V  6 -13071.291580  11658.690276  23749.877747       .233012                    
P  7  20660.995614 -16555.721438  -2681.652530    527.708492                    
V  7   5089.632434    721.518460  30851.655694       .043693                    
P  8 -17445.305273   5096.421184 -19649.733028    -62.493608                    
V  8 -20477.778368 -13443.582349  14409.485440      -.010719                    
P  9  20466.391411  15862.517027  -7092.831643     15.968175                    
V  9  -8418.644938  -1577.081597 -29850.918322       .016508                    
P 10   1539.643069  26243.500346  -2376.468435     81.746533                    
V 10  -2651.667669   2917.679699  32068.804308       .005993                    
P 11 -22363.884094 -13381.965451  -5819.486634    320.379589                    
V 11   8406.045715  -1499.445864 -28942.430581       .026204                    
P 13 -23071.954881   3791.711558  12456.414989     54.398429                    
V 13  13049.139109  -9263.149911  26871.325062       .027458                    
P 14  20902.472212 -15736.279154   4491.333747    -15.998527                    
V 14   5852.021017  -1117.353958 -31664.370895       .007367                    
P 15  17860.526256  -4645.438894 -19405.901093    596.265691                    
V 15  19622.083644  14161.529388  14407.976221       .062172                    
P 16   2635.001216 -26058.661020   4160.247062     36.669538                    
V 16   2862.507620   5160.059667  31260.187009       .022416                    
P 17 -21426.933380  15326.427558   2954.121901     82.087832                    
V 17  -4721.121977   -512.519016 -31519.622355       .046332                    
P 18  15211.804609  -1946.458532 -21570.321776   -230.675963                    
V 18   -298.249295  27651.786912  -2986.920042      -.017925                    
P 19  -8477.339855 -12697.579938 -21629.493921    -15.329385                    
V 19  24476.858755 -13014.560429  -1903.748215       .015276                    
P 20 -12794.621296 -15159.538771  17587.563261    -28.674543                    
V 20   1088.278905 -22548.704050 -18510.631199       .007294                    
P 21  23071.306887   2667.129161 -13297.397605     21.231507                    
V 21  13204.191074  10643.996647  24431.384839       .029298                    
P 22  12135.064699 -16887.111847 -16368.833387     85.314234                    
V 22   1287.889307  21141.854091 -20667.058477       .036148                    
P 23 -16619.428699  -5877.685845  19821.791696    144.122721                    
V 23  21115.033669 -13980.109568  13343.669575      -.010471                    
P 24 -20074.146958   2056.095201  17637.144998    100.554248                    
V 24 -17775.566983 -12766.339077 -18745.027366       .029223                    
P 25   4794.939777 -14867.350022  21880.205800     10.091393                    
V 25  24703.633313  10552.529182   1915.606632       .062162                    
P 26   5196.938098  13921.563054 -22354.300201    -85.980439                    
V 26 -24042.122990  13214.999268   3265.501774      -.105333                    
P 27 -23548.056345  -1954.415714 -11855.955228     44.220529                    
V 27 -13329.131171  -8954.793160  26278.024381       .017394                    
P 28 -12976.167663  13319.353786 -18546.116220     29.541743                    
V 28  -1726.182831 -24266.099996 -16316.083173      -.008668                    
P 29    876.837885  15795.342208 -21042.905147    584.806567                    
V 29 -23603.627432  13670.250702   9436.520150       .083948                    
P 30  15358.344489   5090.744226  20804.796827    139.613344                    
V 30    733.997046  27097.257362  -6962.697392       .513803                    
EOF
